FENGYUN 1C DEB          
1 29888U 99025GJ  13128.16912933  .00001155  00000-0  43539-3 0  7390
2 29888  99.0471 197.8538 0302494  76.4739 337.9071 14.11033049324966
FENGYUN 1C DEB          
1 29889U 99025GK  13128.06721314  .00000853  00000-0  46140-3 0  6609
2 29889  99.5205 272.8578 0162974 175.0630 237.4555 14.08899014324563
FENGYUN 1C DEB          
1 29890U 99025GL  13126.33971919  .00001666  00000-0  99808-3 0  9837
2 29890  99.4785 260.8054 0018208 284.0189 105.4999 14.08472715324069
FENGYUN 1C DEB          
1 29891U 99025GM  13128.16168919  .00000209  00000-0  17803-3 0   859
2 29891  99.2159 181.7865 0065644 357.6358  69.5452 13.97306691321905
FENGYUN 1C DEB          
1 29892U 99025GN  13127.62639580  .00002885  00000-0  15511-2 0   414
2 29892  99.2813 139.1125 0293266  99.0160 355.8179 13.93951676320338
FENGYUN 1C DEB          
1 29893U 99025GP  13128.11741360  .00000100  00000-0  12295-3 0  9896
2 29893  98.5082 270.2608 0174255   1.9103  83.8331 13.77856482317534
FENGYUN 1C DEB          
1 29894U 99025GQ  13128.11227669  .00000474  00000-0  47624-3 0  8345
2 29894  99.3976  85.3703 0175282 213.6396 276.8234 13.76180140317002
FENGYUN 1C DEB          
1 29895U 99025GR  13127.27505413  .00002539  00000-0  14308-2 0  8164
2 29895  99.8531 239.2193 0402043 252.1602 162.0507 13.77400689316624
FENGYUN 1C DEB          
1 29896U 99025GS  13127.32636470  .00000444  00000-0  52127-3 0  7062
2 29896  99.4979  59.3129 0247966 349.7806 129.6540 13.61386484313528
FENGYUN 1C DEB          
1 29897U 99025GT  13128.16562054  .00000614  00000-0  81367-3 0  7159
2 29897  98.6349 179.6983 0330092  64.6637 330.7584 13.43471492309198
FENGYUN 1C DEB          
1 29898U 99025GU  13126.63657793  .00007049  00000-0  55404-2 0  6582
2 29898  98.2263  89.7534 0509690  33.5498  15.8440 13.44404775308805
FENGYUN 1C DEB          
1 29899U 99025GV  13128.06732529  .00000092  00000-0  16657-3 0   935
2 29899  98.6658 172.1912 0357267 112.1511 313.0430 13.36267058307898
FENGYUN 1C DEB          
1 29900U 99025GW  13127.21787500  .00258956  00000-0  38330-1 0  3547
2 29900 100.0855 209.4799 0109266 343.1697  49.9593 14.69702449314810
FENGYUN 1C DEB          
1 29901U 99025GX  13126.60202369  .00000221  00000-0  35536-3 0  6129
2 29901  98.7648 174.9032 0386213 198.2266 318.3411 13.31173705306492
FENGYUN 1C DEB          
1 29903U 99025GZ  13127.84279390  .00003404  00000-0  10321-2 0  8498
2 29903  98.9492 245.9692 0103711  62.9011  82.0131 14.39859753330853
FENGYUN 1C DEB          
1 29904U 99025HA  13127.35659181  .00001660  00000-0  45619-3 0  7800
2 29904  98.9531 238.5640 0241785 157.2504 237.4665 14.32613825329811
FENGYUN 1C DEB          
1 29905U 99025HB  13128.56493235  .00012823  00000-0  35141-2 0  8869
2 29905  99.2713 314.3564 0072372 128.6359 264.5422 14.45714910330602
FENGYUN 1C DEB          
1 29906U 99025HC  13127.80914127  .00002286  00000-0  11505-2 0   855
2 29906  98.9489 139.2198 0058060 181.2704 258.3515 14.16547261325747
FENGYUN 1C DEB          
1 29907U 99025HD  13127.87542634  .00001528  00000-0  11049-2 0   999
2 29907  99.1087  97.9445 0090675 332.4384  60.0306 13.96216553321287
FENGYUN 1C DEB          
1 29909U 99025HF  13127.10758203  .00002427  00000-0  11355-2 0  5510
2 29909  98.9030 143.3825 0069981 156.2490 235.8982 14.19911849326382
FENGYUN 1C DEB          
1 29911U 99025HH  13126.03354476  .00000954  00000-0  57091-3 0  9939
2 29911  99.0259 120.4475 0031989 217.7268 174.5832 14.09340172324239
FENGYUN 1C DEB          
1 29912U 99025HJ  13128.21584490  .00001987  00000-0  10233-2 0   746
2 29912  98.9584 126.2107 0065332 181.5808 308.9802 14.15263646325566
FENGYUN 1C DEB          
1 29913U 99025HK  13127.57243278  .00000694  00000-0  45990-3 0  9732
2 29913  99.0966 141.9664 0066239 169.6938 336.6403 14.03787481323437
FENGYUN 1C DEB          
1 29914U 99025HL  13127.40024861  .00000334  00000-0  24960-3 0  9858
2 29914  99.1258 113.0505 0039193 246.4499 223.6855 14.01481747322947
FENGYUN 1C DEB          
1 29915U 99025HM  13127.20269226  .00006021  00000-0  13732-2 0  9294
2 29915  99.0763 292.8789 0109875 356.5297  54.6897 14.52548573332397
FENGYUN 1C DEB          
1 29916U 99025HN  13128.20412668  .00000585  00000-0  73224-3 0  8545
2 29916  99.2745   5.9152 0281685  67.9792  75.0281 13.52619273311677
FENGYUN 1C DEB          
1 29917U 99025HP  13128.04885781  .00000786  00000-0  88867-3 0  9147
2 29917  98.8620 302.5273 0240188 284.3483 224.3714 13.61744975313636
FENGYUN 1C DEB          
1 29918U 99025HQ  13126.91751436  .00003269  00000-0  17792-2 0   318
2 29918  98.8995  89.0876 0017992 162.5759 231.0920 14.12827281324653
FENGYUN 1C DEB          
1 29919U 99025HR  13128.05384005  .00000117  00000-0  13168-3 0    76
2 29919  98.4770 290.3765 0138871 309.0220 201.0410 13.83452253318885
FENGYUN 1C DEB          
1 29920U 99025HS  13126.15848229  .00001494  00000-0  10901-2 0  8753
2 29920  98.3998 296.2978 0144842 191.2775 220.2892 13.92562695320400
FENGYUN 1C DEB          
1 29921U 99025HT  13128.02902947  .00000769  00000-0  52609-3 0  9689
2 29921  99.1240 136.6046 0047081 286.8156 106.5820 14.02330084323120
FENGYUN 1C DEB          
1 29922U 99025HU  13127.89267172  .00000049  00000-0  65389-4 0  1085
2 29922  99.1039  84.2760 0094481 324.1534  68.5863 13.96503795321833
FENGYUN 1C DEB          
1 29923U 99025HV  13127.57731437  .00000830  00000-0  51584-3 0  9695
2 29923  99.0446 137.7990 0019668 190.1400 316.3150 14.07802079324275
FENGYUN 1C DEB          
1 29924U 99025HW  13127.23122016 -.00000059  00000-0 -81930-5 0  9848
2 29924  99.0388 124.2410 0026741 215.9692 276.7195 14.07885601324380
FENGYUN 1C DEB          
1 29925U 99025HX  13128.19369847  .00004889  00000-0  12982-2 0  8626
2 29925  99.0311 270.2971 0102150  39.8641  45.2239 14.46058946331560
FENGYUN 1C DEB          
1 29926U 99025HY  13127.73059753  .00000752  00000-0  22686-3 0  7861
2 29926  98.7545 182.8002 0269674 190.8924 318.7548 14.26661509328645
FENGYUN 1C DEB          
1 29927U 99025HZ  13126.74551184  .00002261  00000-0  10499-2 0   944
2 29927  99.0618 212.2873 0034660 314.6277 191.6380 14.21407417326705
FENGYUN 1C DEB          
1 29928U 99025JA  13127.86872219  .00000712  00000-0  64281-3 0    43
2 29928  99.2274  67.9207 0153435  85.2689 309.1611 13.81890728318319
FENGYUN 1C DEB          
1 29929U 99025JB  13127.79856108  .00001351  00000-0  10830-2 0   281
2 29929  98.5434 317.6954 0152016 287.5574 190.6609 13.87089618319313
FENGYUN 1C DEB          
1 29930U 99025JC  13127.24319377  .00000532  00000-0  24817-3 0  7340
2 29930  98.9882 206.1042 0171126 192.7285 201.4395 14.17190243326429
FENGYUN 1C DEB          
1 29931U 99025JD  13127.71052196 -.00000040  00000-0  30375-5 0  9868
2 29931  99.1056 108.9075 0031183 229.9439 240.2815 14.01866178323068
FENGYUN 1C DEB          
1 29932U 99025JE  13127.56369227  .00000433  00000-0  25592-3 0  9765
2 29932  98.9721 131.1973 0039734 198.0825 308.7158 14.12662202325454
FENGYUN 1C DEB          
1 29933U 99025JF  13127.14107293  .00003242  00000-0  15678-2 0   599
2 29933  98.7668  92.1428 0012978 153.2534 335.2057 14.19170736326227
FENGYUN 1C DEB          
1 29934U 99025JG  13127.82720523  .00000888  00000-0  26077-3 0  8263
2 29934  98.8195 233.3396 0144786  19.7246 125.0098 14.40538995331771
FENGYUN 1C DEB          
1 29935U 99025JH  13127.19387333  .00000163  00000-0  98135-4 0  7509
2 29935  98.4979  24.4401 0154837 110.5694  42.9090 14.12371451325592
FENGYUN 1C DEB          
1 29936U 99025JJ  13128.19689641  .00000330  00000-0  12920-3 0  8399
2 29936  98.7242 197.8659 0120427  90.1375 332.5232 14.32038774330240
FENGYUN 1C DEB          
1 29937U 99025JK  13127.70129334  .00000072  00000-0  74313-4 0    35
2 29937  99.0990 117.7656 0032030 206.9863 260.1809 14.03647089323683
FENGYUN 1C DEB          
1 29938U 99025JL  13127.59938767  .00000417  00000-0  28257-3 0  9870
2 29938  99.0567 149.3129 0033490 250.2614 256.2156 14.05605727323740
FENGYUN 1C DEB          
1 29939U 99025JM  13127.88323387 -.00000087  00000-0 -22773-4 0    31
2 29939  98.9809 137.0979 0066828 207.7433 201.3393 14.11291816325464
FENGYUN 1C DEB          
1 29940U 99025JN  13126.08564060  .00000791  00000-0  45246-3 0  1343
2 29940  99.0002 139.7623 0081439 229.8265 162.3207 14.10846337324564
FENGYUN 1C DEB          
1 29941U 99025JP  13128.20485836  .00005154  00000-0  15541-2 0  8274
2 29941  98.8712 226.7210 0098887  67.6630 349.3289 14.40134693330638
FENGYUN 1C DEB          
1 29942U 99025JQ  13126.93206860  .00003756  00000-0  20315-2 0  1084
2 29942  98.9130 107.9413 0062752 224.9037 168.9033 14.12155939324269
FENGYUN 1C DEB          
1 29943U 99025JR  13126.78247385  .00000027  00000-0  41700-4 0    52
2 29943  99.0213 127.9286 0035515 221.5891 242.6981 14.08968097324783
FENGYUN 1C DEB          
1 29944U 99025JS  13127.44238610  .00003630  00000-0  58081-3 0  8159
2 29944  99.0681 297.1222 0284058 240.6786 145.2263 14.49083998332756
FENGYUN 1C DEB          
1 29945U 99025JT  13127.15202645  .00000468  00000-0  32267-3 0  9916
2 29945  99.0916 116.3987 0031284 207.8570 289.8496 14.04079134323688
FENGYUN 1C DEB          
1 29946U 99025JU  13127.57339895  .00000197  00000-0  14551-3 0  9938
2 29946  99.0677 149.1843 0082427 286.4018 220.2980 14.05200673323685
FENGYUN 1C DEB          
1 29947U 99025JV  13127.43040316  .00000272  00000-0  20959-3 0  9169
2 29947  99.1489 113.3864 0044787 239.2481 281.8685 14.01184845322784
FENGYUN 1C DEB          
1 29948U 99025JW  13126.49286505 -.00000173  00000-0 -77700-4 0  9795
2 29948  99.0676 152.6093 0087387 154.6167 312.0764 14.04499104323456
FENGYUN 1C DEB          
1 29949U 99025JX  13127.87726883  .00000105  00000-0  90982-4 0  9944
2 29949  99.0628 122.0556 0024071 205.6879 185.2621 14.06196015324299
